[{"OBJECT_NAME":"STARLINK-31845","OBJECT_ID":"2024-118S","EPOCH":"2026-01-20T22:11:13.003584","MEAN_MOTION":15.30171254,"ECCENTRICITY":0.00012521,"INCLINATION":53.159,"RA_OF_ASC_NODE":246.422,"ARG_OF_PERICENTER":90.1421,"MEAN_ANOMALY":269.9724,"EPHEMERIS_TYPE":0,"CLASSIFICATION_TYPE":"U","NORAD_CAT_ID":60129,"ELEMENT_SET_NO":999,"REV_AT_EPOCH":8841,"BSTAR":-9.0426715e-5,"MEAN_MOTION_DOT":-3.034e-5,"MEAN_MOTION_DDOT":0},{"OBJECT_NAME":"STARLINK-31838","OBJECT_ID":"2024-118T","EPOCH":"2026-01-20T22:28:39.701568","MEAN_MOTION":15.30205992,"ECCENTRICITY":0.00012599,"INCLINATION":53.1572,"RA_OF_ASC_NODE":248.6341,"ARG_OF_PERICENTER":70.7354,"MEAN_ANOMALY":289.3783,"EPHEMERIS_TYPE":0,"CLASSIFICATION_TYPE":"U","NORAD_CAT_ID":60130,"ELEMENT_SET_NO":999,"REV_AT_EPOCH":8838,"BSTAR":-9.8771823e-5,"MEAN_MOTION_DOT":-3.284e-5,"MEAN_MOTION_DDOT":0},{"OBJECT_NAME":"STARLINK-31785","OBJECT_ID":"2024-118U","EPOCH":"2026-01-20T20:30:15.476256","MEAN_MOTION":15.30239084,"ECCENTRICITY":8.559e-5,"INCLINATION":53.1592,"RA_OF_ASC_NODE":248.8342,"ARG_OF_PERICENTER":104.569,"MEAN_ANOMALY":255.5406,"EPHEMERIS_TYPE":0,"CLASSIFICATION_TYPE":"U","NORAD_CAT_ID":60131,"ELEMENT_SET_NO":999,"REV_AT_EPOCH":8837,"BSTAR":0.00020518981,"MEAN_MOTION_DOT":5.73e-5,"MEAN_MOTION_DDOT":0},{"OBJECT_NAME":"STARLINK-31792","OBJECT_ID":"2024-118V","EPOCH":"2026-01-20T21:46:52.959360","MEAN_MOTION":15.30189666,"ECCENTRICITY":0.00014676,"INCLINATION":53.1601,"RA_OF_ASC_NODE":246.2802,"ARG_OF_PERICENTER":87.7954,"MEAN_ANOMALY":272.3215,"EPHEMERIS_TYPE":0,"CLASSIFICATION_TYPE":"U","NORAD_CAT_ID":60132,"ELEMENT_SET_NO":999,"REV_AT_EPOCH":8841,"BSTAR":-1.0398368e-5,"MEAN_MOTION_DOT":-6.67e-6,"MEAN_MOTION_DDOT":0},{"OBJECT_NAME":"STARLINK-32043","OBJECT_ID":"2024-120A","EPOCH":"2026-01-20T20:33:02.762208","MEAN_MOTION":15.30160911,"ECCENTRICITY":0.000104,"INCLINATION":53.1607,"RA_OF_ASC_NODE":182.0353,"ARG_OF_PERICENTER":78.2365,"MEAN_ANOMALY":281.8753,"EPHEMERIS_TYPE":0,"CLASSIFICATION_TYPE":"U","NORAD_CAT_ID":60135,"ELEMENT_SET_NO":999,"REV_AT_EPOCH":8905,"BSTAR":-0.00012905996,"MEAN_MOTION_DOT":-4.174e-5,"MEAN_MOTION_DDOT":0},{"OBJECT_NAME":"STARLINK-32112","OBJECT_ID":"2024-120B","EPOCH":"2026-01-20T19:44:29.024160","MEAN_MOTION":15.30208892,"ECCENTRICITY":0.0001118,"INCLINATION":53.1597,"RA_OF_ASC_NODE":182.5385,"ARG_OF_PERICENTER":96.5454,"MEAN_ANOMALY":263.5674,"EPHEMERIS_TYPE":0,"CLASSIFICATION_TYPE":"U","NORAD_CAT_ID":60136,"ELEMENT_SET_NO":999,"REV_AT_EPOCH":8912,"BSTAR":0.0001991965,"MEAN_MOTION_DOT":5.547e-5,"MEAN_MOTION_DDOT":0},{"OBJECT_NAME":"STARLINK-32050","OBJECT_ID":"2024-120C","EPOCH":"2026-01-20T19:53:39.850080","MEAN_MOTION":15.30174543,"ECCENTRICITY":0.00014768,"INCLINATION":53.1608,"RA_OF_ASC_NODE":182.5773,"ARG_OF_PERICENTER":88.5176,"MEAN_ANOMALY":271.5994,"EPHEMERIS_TYPE":0,"CLASSIFICATION_TYPE":"U","NORAD_CAT_ID":60137,"ELEMENT_SET_NO":999,"REV_AT_EPOCH":8904,"BSTAR":-8.6214759e-5,"MEAN_MOTION_DOT":-2.91e-5,"MEAN_MOTION_DDOT":0},{"OBJECT_NAME":"STARLINK-32025","OBJECT_ID":"2024-120D","EPOCH":"2026-01-20T17:00:35.735616","MEAN_MOTION":15.30150545,"ECCENTRICITY":0.00013978,"INCLINATION":53.1606,"RA_OF_ASC_NODE":182.5356,"ARG_OF_PERICENTER":76.6414,"MEAN_ANOMALY":283.4742,"EPHEMERIS_TYPE":0,"CLASSIFICATION_TYPE":"U","NORAD_CAT_ID":60138,"ELEMENT_SET_NO":999,"REV_AT_EPOCH":8903,"BSTAR":0.00013638881,"MEAN_MOTION_DOT":3.676e-5,"MEAN_MOTION_DDOT":0},{"OBJECT_NAME":"STARLINK-31867","OBJECT_ID":"2024-120E","EPOCH":"2026-01-21T00:00:02.999808","MEAN_MOTION":15.46990377,"ECCENTRICITY":0.00044625,"INCLINATION":53.1537,"RA_OF_ASC_NODE":177.6851,"ARG_OF_PERICENTER":279.2803,"MEAN_ANOMALY":225.1259,"EPHEMERIS_TYPE":0,"CLASSIFICATION_TYPE":"U","NORAD_CAT_ID":60139,"ELEMENT_SET_NO":999,"REV_AT_EPOCH":578,"BSTAR":0.014570758,"MEAN_MOTION_DOT":0.00817508,"MEAN_MOTION_DDOT":0},{"OBJECT_NAME":"STARLINK-31694","OBJECT_ID":"2024-120F","EPOCH":"2026-01-20T19:41:30.786144","MEAN_MOTION":15.30155738,"ECCENTRICITY":0.00012245,"INCLINATION":53.1588,"RA_OF_ASC_NODE":182.5234,"ARG_OF_PERICENTER":92.774,"MEAN_ANOMALY":267.3401,"EPHEMERIS_TYPE":0,"CLASSIFICATION_TYPE":"U","NORAD_CAT_ID":60140,"ELEMENT_SET_NO":999,"REV_AT_EPOCH":8912,"BSTAR":-0.00013542082,"MEAN_MOTION_DOT":-4.362e-5,"MEAN_MOTION_DDOT":0},{"OBJECT_NAME":"STARLINK-32036","OBJECT_ID":"2024-120G","EPOCH":"2026-01-20T19:39:55.932768","MEAN_MOTION":15.30218705,"ECCENTRICITY":0.00012262,"INCLINATION":53.1599,"RA_OF_ASC_NODE":182.517,"ARG_OF_PERICENTER":97.595,"MEAN_ANOMALY":262.519,"EPHEMERIS_TYPE":0,"CLASSIFICATION_TYPE":"U","NORAD_CAT_ID":60141,"ELEMENT_SET_NO":999,"REV_AT_EPOCH":8912,"BSTAR":0.00013390362,"MEAN_MOTION_DOT":3.611e-5,"MEAN_MOTION_DDOT":0},{"OBJECT_NAME":"STARLINK-32031","OBJECT_ID":"2024-120H","EPOCH":"2026-01-20T17:56:45.089376","MEAN_MOTION":15.30226534,"ECCENTRICITY":0.00011034,"INCLINATION":53.1606,"RA_OF_ASC_NODE":182.781,"ARG_OF_PERICENTER":94.1866,"MEAN_ANOMALY":265.9261,"EPHEMERIS_TYPE":0,"CLASSIFICATION_TYPE":"U","NORAD_CAT_ID":60142,"ELEMENT_SET_NO":999,"REV_AT_EPOCH":8911,"BSTAR":9.8592692e-5,"MEAN_MOTION_DOT":2.564e-5,"MEAN_MOTION_DDOT":0},{"OBJECT_NAME":"STARLINK-32027","OBJECT_ID":"2024-120J","EPOCH":"2026-01-20T20:02:34.380960","MEAN_MOTION":15.30198128,"ECCENTRICITY":8.85e-5,"INCLINATION":53.1609,"RA_OF_ASC_NODE":181.8636,"ARG_OF_PERICENTER":34.3084,"MEAN_ANOMALY":325.7973,"EPHEMERIS_TYPE":0,"CLASSIFICATION_TYPE":"U","NORAD_CAT_ID":60143,"ELEMENT_SET_NO":999,"REV_AT_EPOCH":8913,"BSTAR":3.9075927e-5,"MEAN_MOTION_DOT":7.98e-6,"MEAN_MOTION_DDOT":0},{"OBJECT_NAME":"STARLINK-32033","OBJECT_ID":"2024-120K","EPOCH":"2026-01-20T17:12:42.566976","MEAN_MOTION":15.30249979,"ECCENTRICITY":7.845e-5,"INCLINATION":53.1596,"RA_OF_ASC_NODE":182.5924,"ARG_OF_PERICENTER":62.3886,"MEAN_ANOMALY":297.7195,"EPHEMERIS_TYPE":0,"CLASSIFICATION_TYPE":"U","NORAD_CAT_ID":60144,"ELEMENT_SET_NO":999,"REV_AT_EPOCH":8903,"BSTAR":0.00049964911,"MEAN_MOTION_DOT":0.00014491,"MEAN_MOTION_DDOT":0},{"OBJECT_NAME":"STARLINK-32029","OBJECT_ID":"2024-120L","EPOCH":"2026-01-20T20:51:13.035168","MEAN_MOTION":15.30199748,"ECCENTRICITY":0.00011494,"INCLINATION":53.1579,"RA_OF_ASC_NODE":182.1135,"ARG_OF_PERICENTER":77.9126,"MEAN_ANOMALY":282.2003,"EPHEMERIS_TYPE":0,"CLASSIFICATION_TYPE":"U","NORAD_CAT_ID":60145,"ELEMENT_SET_NO":999,"REV_AT_EPOCH":8905,"BSTAR":0.00018179669,"MEAN_MOTION_DOT":5.029e-5,"MEAN_MOTION_DDOT":0},{"OBJECT_NAME":"STARLINK-32127","OBJECT_ID":"2024-120M","EPOCH":"2026-01-20T19:59:34.778688","MEAN_MOTION":15.30173278,"ECCENTRICITY":0.00013992,"INCLINATION":53.1601,"RA_OF_ASC_NODE":181.8906,"ARG_OF_PERICENTER":84.6945,"MEAN_ANOMALY":275.4216,"EPHEMERIS_TYPE":0,"CLASSIFICATION_TYPE":"U","NORAD_CAT_ID":60146,"ELEMENT_SET_NO":999,"REV_AT_EPOCH":8905,"BSTAR":-9.8710963e-5,"MEAN_MOTION_DOT":-3.279e-5,"MEAN_MOTION_DDOT":0},{"OBJECT_NAME":"STARLINK-32019","OBJECT_ID":"2024-120N","EPOCH":"2026-01-20T20:13:13.495584","MEAN_MOTION":15.30204439,"ECCENTRICITY":0.00011541,"INCLINATION":53.161,"RA_OF_ASC_NODE":181.9453,"ARG_OF_PERICENTER":79.6448,"MEAN_ANOMALY":280.4683,"EPHEMERIS_TYPE":0,"CLASSIFICATION_TYPE":"U","NORAD_CAT_ID":60147,"ELEMENT_SET_NO":999,"REV_AT_EPOCH":8905,"BSTAR":3.2693305e-5,"MEAN_MOTION_DOT":6.09e-6,"MEAN_MOTION_DDOT":0},{"OBJECT_NAME":"STARLINK-32021","OBJECT_ID":"2024-120P","EPOCH":"2026-01-20T17:14:20.144544","MEAN_MOTION":15.30224974,"ECCENTRICITY":8.946e-5,"INCLINATION":53.1581,"RA_OF_ASC_NODE":172.6459,"ARG_OF_PERICENTER":98.0933,"MEAN_ANOMALY":262.017,"EPHEMERIS_TYPE":0,"CLASSIFICATION_TYPE":"U","NORAD_CAT_ID":60148,"ELEMENT_SET_NO":999,"REV_AT_EPOCH":8925,"BSTAR":0.00011928796,"MEAN_MOTION_DOT":3.178e-5,"MEAN_MOTION_DDOT":0},{"OBJECT_NAME":"STARLINK-32022","OBJECT_ID":"2024-120Q","EPOCH":"2026-01-20T17:29:24.285120","MEAN_MOTION":15.30225058,"ECCENTRICITY":0.00012473,"INCLINATION":53.1605,"RA_OF_ASC_NODE":182.6601,"ARG_OF_PERICENTER":88.2162,"MEAN_ANOMALY":271.8981,"EPHEMERIS_TYPE":0,"CLASSIFICATION_TYPE":"U","NORAD_CAT_ID":60149,"ELEMENT_SET_NO":999,"REV_AT_EPOCH":8911,"BSTAR":0.00016432155,"MEAN_MOTION_DOT":4.514e-5,"MEAN_MOTION_DDOT":0},{"OBJECT_NAME":"STARLINK-32014","OBJECT_ID":"2024-120R","EPOCH":"2026-01-20T17:15:45.057600","MEAN_MOTION":15.30204359,"ECCENTRICITY":0.00012434,"INCLINATION":53.1612,"RA_OF_ASC_NODE":182.5982,"ARG_OF_PERICENTER":87.396,"MEAN_ANOMALY":272.7183,"EPHEMERIS_TYPE":0,"CLASSIFICATION_TYPE":"U","NORAD_CAT_ID":60150,"ELEMENT_SET_NO":999,"REV_AT_EPOCH":8903,"BSTAR":5.8775241e-5,"MEAN_MOTION_DOT":1.382e-5,"MEAN_MOTION_DDOT":0},{"OBJECT_NAME":"STARLINK-32004","OBJECT_ID":"2024-120S","EPOCH":"2026-01-20T17:20:18.124800","MEAN_MOTION":15.3023359,"ECCENTRICITY":0.00010491,"INCLINATION":53.1602,"RA_OF_ASC_NODE":182.6183,"ARG_OF_PERICENTER":78.9056,"MEAN_ANOMALY":281.2063,"EPHEMERIS_TYPE":0,"CLASSIFICATION_TYPE":"U","NORAD_CAT_ID":60151,"ELEMENT_SET_NO":999,"REV_AT_EPOCH":8911,"BSTAR":0.0003829812,"MEAN_MOTION_DOT":0.00011012,"MEAN_MOTION_DDOT":0},{"OBJECT_NAME":"STARLINK-32147","OBJECT_ID":"2024-120T","EPOCH":"2026-01-20T19:46:00.656544","MEAN_MOTION":15.30220301,"ECCENTRICITY":0.00011545,"INCLINATION":53.1601,"RA_OF_ASC_NODE":182.542,"ARG_OF_PERICENTER":90.673,"MEAN_ANOMALY":269.4403,"EPHEMERIS_TYPE":0,"CLASSIFICATION_TYPE":"U","NORAD_CAT_ID":60152,"ELEMENT_SET_NO":999,"REV_AT_EPOCH":8904,"BSTAR":0.00013101089,"MEAN_MOTION_DOT":3.525e-5,"MEAN_MOTION_DDOT":0},{"OBJECT_NAME":"STARLINK-32131","OBJECT_ID":"2024-120U","EPOCH":"2026-01-20T20:55:46.396128","MEAN_MOTION":15.30208594,"ECCENTRICITY":0.00012854,"INCLINATION":53.1583,"RA_OF_ASC_NODE":182.1327,"ARG_OF_PERICENTER":86.9506,"MEAN_ANOMALY":273.1642,"EPHEMERIS_TYPE":0,"CLASSIFICATION_TYPE":"U","NORAD_CAT_ID":60153,"ELEMENT_SET_NO":999,"REV_AT_EPOCH":8913,"BSTAR":7.4288892e-5,"MEAN_MOTION_DOT":1.842e-5,"MEAN_MOTION_DDOT":0}]
